CS1                     
1 49261U 21088B   26068.75173904  .00015722  00000+0  51176-3 0  9998
2 49261  97.3882 132.1684 0014129  78.0335 282.2490 15.31848439245182
STARLINK-31715          
1 59384U 24062L   26068.76076279 -.00000193  00000+0  55922-5 0  9990
2 59384  53.1597 255.2389 0001118  94.7022 265.4106 15.30189966109686
